{"type": "FeatureCollection", "features": [ {"type": "Feature", "properties": {"norad_id": 38552, "name": "METEOSAT-10 (MSG-3)", "group": "weather", "lat": 3.858176251666656, "lon": 176.63410092462033, "alt_km": 35786.848197816485, "timestamp": "2025-12-21T05:44:51.218750+00:00", "meta": {"OBJECT_NAME": "METEOSAT-10 (MSG-3)", "OBJECT_ID": "2012-035B", "EPOCH": "2025-12-20T21:47:32.825184", "MEAN_MOTION": 1.00276718, "ECCENTRICITY": 7.034e-05, "INCLINATION": 4.2467, "RA_OF_ASC_NODE": 61.701, "ARG_OF_PERICENTER": 269.3726, "MEAN_ANOMALY": 85.8472, "EPHEMERIS_TYPE": 0, "CLASSIFICATION_TYPE": "U", "NORAD_CAT_ID": 38552, "ELEMENT_SET_NO": 999, "REV_AT_EPOCH": 4906, "BSTAR": 0, "MEAN_MOTION_DOT": 1.6e-07, "MEAN_MOTION_DDOT": 0}, "tle": {"line1": "1 38552U 12035B   25354.90801881  .00000016  00000+0  00000+0 0  9993", "line2": "2 38552   4.2467  61.7010 0000703 269.3726  85.8472  1.00276718 49063"}}, "geometry": {"type": "Point", "coordinates": [176.63410092462033, 3.858176251666656]}}, {"type": "Feature", "properties": {"norad_id": 38771, "name": "METOP-B", "group": "weather", "lat": -3.043069957776072, "lon": 45.51895393382693, "alt_km": 825.3244942024858, "timestamp": "2025-12-21T05:44:51.218761+00:00", "meta": {"OBJECT_NAME": "METOP-B", "OBJECT_ID": "2012-049A", "EPOCH": "2025-12-20T21:18:53.727840", "MEAN_MOTION": 14.21411198, "ECCENTRICITY": 0.00031795, "INCLINATION": 98.6786, "RA_OF_ASC_NODE": 44.7084, "ARG_OF_PERICENTER": 126.8826, "MEAN_ANOMALY": 233.2643, "EPHEMERIS_TYPE": 0, "CLASSIFICATION_TYPE": "U", "NORAD_CAT_ID": 38771, "ELEMENT_SET_NO": 999, "REV_AT_EPOCH": 68793, "BSTAR": 6.4043908e-05, "MEAN_MOTION_DOT": 9.6e-07, "MEAN_MOTION_DDOT": 0}, "tle": {"line1": "1 38771U 12049A   25354.88812185  .00000096  00000+0  64044-4 0  9998", "line2": "2 38771  98.6786  44.7084 0003179 126.8826 233.2643 14.21411198687930"}}, "geometry": {"type": "Point", "coordinates": [45.51895393382693, -3.043069957776072]}}, {"type": "Feature", "properties": {"norad_id": 39216, "name": "INSAT-3D", "group": "weather", "lat": -0.9815535772470633, "lon": -54.23460445924609, "alt_km": 35782.01830778525, "timestamp": "2025-12-21T05:44:51.218773+00:00", "meta": {"OBJECT_NAME": "INSAT-3D", "OBJECT_ID": "2013-038B", "EPOCH": "2025-12-20T22:24:21.800160", "MEAN_MOTION": 1.00276867, "ECCENTRICITY": 0.00018071, "INCLINATION": 1.4648, "RA_OF_ASC_NODE": 84.9064, "ARG_OF_PERICENTER": 152.1935, "MEAN_ANOMALY": 318.232, "EPHEMERIS_TYPE": 0, "CLASSIFICATION_TYPE": "U", "NORAD_CAT_ID": 39216, "ELEMENT_SET_NO": 999, "REV_AT_EPOCH": 4529, "BSTAR": 0, "MEAN_MOTION_DOT": -3.16e-06, "MEAN_MOTION_DDOT": 0}, "tle": {"line1": "1 39216U 13038B   25354.93358565 -.00000316  00000+0  00000+0 0  9998", "line2": "2 39216   1.4648  84.9064 0001807 152.1935 318.2320  1.00276867 45295"}}, "geometry": {"type": "Point", "coordinates": [-54.23460445924609, -0.9815535772470633]}}, {"type": "Feature", "properties": {"norad_id": 39260, "name": "FENGYUN 3C", "group": "weather", "lat": 67.57843635325051, "lon": -48.68496777657478, "alt_km": 835.5484218456359, "timestamp": "2025-12-21T05:44:51.218785+00:00", "meta": {"OBJECT_NAME": "FENGYUN 3C", "OBJECT_ID": "2013-052A", "EPOCH": "2025-12-20T22:38:11.139936", "MEAN_MOTION": 14.1569859, "ECCENTRICITY": 0.00147375, "INCLINATION": 98.4771, "RA_OF_ASC_NODE": 332.2223, "ARG_OF_PERICENTER": 172.1548, "MEAN_ANOMALY": 187.986, "EPHEMERIS_TYPE": 0, "CLASSIFICATION_TYPE": "U", "NORAD_CAT_ID": 39260, "ELEMENT_SET_NO": 999, "REV_AT_EPOCH": 63334, "BSTAR": 4.2190973e-05, "MEAN_MOTION_DOT": 4.2e-07, "MEAN_MOTION_DDOT": 0}, "tle": {"line1": "1 39260U 13052A   25354.94318449  .00000042  00000+0  42191-4 0  9998", "line2": "2 39260  98.4771 332.2223 0014737 172.1548 187.9860 14.15698590633341"}}, "geometry": {"type": "Point", "coordinates": [-48.68496777657478, 67.57843635325051]}}, {"type": "Feature", "properties": {"norad_id": 40069, "name": "METEOR-M 2", "group": "weather", "lat": -44.12866779222881, "lon": 144.16662892186193, "alt_km": 824.3873077199933, "timestamp": "2025-12-21T05:44:51.218796+00:00", "meta": {"OBJECT_NAME": "METEOR-M 2", "OBJECT_ID": "2014-037A", "EPOCH": "2025-12-20T21:56:10.305024", "MEAN_MOTION": 14.21389889, "ECCENTRICITY": 0.00054373, "INCLINATION": 98.4903, "RA_OF_ASC_NODE": 332.185, "ARG_OF_PERICENTER": 183.861, "MEAN_ANOMALY": 176.2527, "EPHEMERIS_TYPE": 0, "CLASSIFICATION_TYPE": "U", "NORAD_CAT_ID": 40069, "ELEMENT_SET_NO": 999, "REV_AT_EPOCH": 59399, "BSTAR": 9.1471631e-05, "MEAN_MOTION_DOT": 1.58e-06, "MEAN_MOTION_DDOT": 0}, "tle": {"line1": "1 40069U 14037A   25354.91400816  .00000158  00000+0  91472-4 0  9992", "line2": "2 40069  98.4903 332.1850 0005437 183.8610 176.2527 14.21389889593990"}}, "geometry": {"type": "Point", "coordinates": [144.16662892186193, -44.12866779222881]}}, {"type": "Feature", "properties": {"norad_id": 40267, "name": "HIMAWARI-8", "group": "weather", "lat": -0.019873445726432373, "lon": -43.06368196166227, "alt_km": 35782.93657896819, "timestamp": "2025-12-21T05:44:51.218807+00:00", "meta": {"OBJECT_NAME": "HIMAWARI-8", "OBJECT_ID": "2014-060A", "EPOCH": "2025-12-20T22:27:36.488736", "MEAN_MOTION": 1.00270857, "ECCENTRICITY": 8.749e-05, "INCLINATION": 0.0398, "RA_OF_ASC_NODE": 138.0355, "ARG_OF_PERICENTER": 157.7751, "MEAN_ANOMALY": 271.5211, "EPHEMERIS_TYPE": 0, "CLASSIFICATION_TYPE": "U", "NORAD_CAT_ID": 40267, "ELEMENT_SET_NO": 999, "REV_AT_EPOCH": 4097, "BSTAR": 0, "MEAN_MOTION_DOT": -2.52e-06, "MEAN_MOTION_DDOT": 0}, "tle": {"line1": "1 40267U 14060A   25354.93583899 -.00000252  00000+0  00000+0 0  9991", "line2": "2 40267   0.0398 138.0355 0000874 157.7751 271.5211  1.00270857 40977"}}, "geometry": {"type": "Point", "coordinates": [-43.06368196166227, -0.019873445726432373]}}, {"type": "Feature", "properties": {"norad_id": 40367, "name": "FENGYUN 2G", "group": "weather", "lat": -1.8428265998242659, "lon": -84.55338487975696, "alt_km": 35778.06792942092, "timestamp": "2025-12-21T05:44:51.218819+00:00", "meta": {"OBJECT_NAME": "FENGYUN 2G", "OBJECT_ID": "2014-090A", "EPOCH": "2025-12-20T18:50:19.796640", "MEAN_MOTION": 1.00261225, "ECCENTRICITY": 0.00026634, "INCLINATION": 5.1876, "RA_OF_ASC_NODE": 75.0062, "ARG_OF_PERICENTER": 202.6901, "MEAN_ANOMALY": 193.7687, "EPHEMERIS_TYPE": 0, "CLASSIFICATION_TYPE": "U", "NORAD_CAT_ID": 40367, "ELEMENT_SET_NO": 999, "REV_AT_EPOCH": 4021, "BSTAR": 0, "MEAN_MOTION_DOT": -2.79e-06, "MEAN_MOTION_DDOT": 0}, "tle": {"line1": "1 40367U 14090A   25354.78495135 -.00000279  00000+0  00000+0 0  9992", "line2": "2 40367   5.1876  75.0062 0002663 202.6901 193.7687  1.00261225 40213"}}, "geometry": {"type": "Point", "coordinates": [-84.55338487975696, -1.8428265998242659]}}, {"type": "Feature", "properties": {"norad_id": 40732, "name": "METEOSAT-11 (MSG-4)", "group": "weather", "lat": 2.5288340398657887, "lon": -174.51236605920198, "alt_km": 35783.06454992496, "timestamp": "2025-12-21T05:44:51.218831+00:00", "meta": {"OBJECT_NAME": "METEOSAT-11 (MSG-4)", "OBJECT_ID": "2015-034A", "EPOCH": "2025-12-20T21:50:02.585760", "MEAN_MOTION": 1.00270049, "ECCENTRICITY": 8.17e-05, "INCLINATION": 2.7566, "RA_OF_ASC_NODE": 71.9806, "ARG_OF_PERICENTER": 136.6867, "MEAN_ANOMALY": 217.7783, "EPHEMERIS_TYPE": 0, "CLASSIFICATION_TYPE": "U", "NORAD_CAT_ID": 40732, "ELEMENT_SET_NO": 999, "REV_AT_EPOCH": 542, "BSTAR": 0, "MEAN_MOTION_DOT": 8.2e-07, "MEAN_MOTION_DDOT": 0}, "tle": {"line1": "1 40732U 15034A   25354.90975215  .00000082  00000+0  00000+0 0  9994", "line2": "2 40732   2.7566  71.9806 0000817 136.6867 217.7783  1.00270049  5427"}}, "geometry": {"type": "Point", "coordinates": [-174.51236605920198, 2.5288340398657887]}}, {"type": "Feature", "properties": {"norad_id": 41105, "name": "ELEKTRO-L 2", "group": "weather", "lat": 6.258596131877316, "lon": 161.75966215096963, "alt_km": 35792.361250219146, "timestamp": "2025-12-21T05:44:51.218843+00:00", "meta": {"OBJECT_NAME": "ELEKTRO-L 2", "OBJECT_ID": "2015-074A", "EPOCH": "2025-12-20T21:43:18.232032", "MEAN_MOTION": 1.00272542, "ECCENTRICITY": 0.00035077, "INCLINATION": 6.245, "RA_OF_ASC_NODE": 72.7312, "ARG_OF_PERICENTER": 208.5495, "MEAN_ANOMALY": 119.8022, "EPHEMERIS_TYPE": 0, "CLASSIFICATION_TYPE": "U", "NORAD_CAT_ID": 41105, "ELEMENT_SET_NO": 999, "REV_AT_EPOCH": 3671, "BSTAR": 0, "MEAN_MOTION_DOT": -9.8e-07, "MEAN_MOTION_DDOT": 0}, "tle": {"line1": "1 41105U 15074A   25354.90507213 -.00000098  00000+0  00000+0 0  9990", "line2": "2 41105   6.2450  72.7312 0003507 208.5495 119.8022  1.00272542 36713"}}, "geometry": {"type": "Point", "coordinates": [161.75966215096963, 6.258596131877316]}}, {"type": "Feature", "properties": {"norad_id": 41752, "name": "INSAT-3DR", "group": "weather", "lat": 0.005778057132071413, "lon": -109.80401262485415, "alt_km": 35730.33629394243, "timestamp": "2025-12-21T05:44:51.218863+00:00", "meta": {"OBJECT_NAME": "INSAT-3DR", "OBJECT_ID": "2016-054A", "EPOCH": "2025-12-20T22:37:38.702784", "MEAN_MOTION": 1.00271577, "ECCENTRICITY": 0.00141419, "INCLINATION": 0.1117, "RA_OF_ASC_NODE": 86.3292, "ARG_OF_PERICENTER": 185.3241, "MEAN_ANOMALY": 231.5163, "EPHEMERIS_TYPE": 0, "CLASSIFICATION_TYPE": "U", "NORAD_CAT_ID": 41752, "ELEMENT_SET_NO": 999, "REV_AT_EPOCH": 3403, "BSTAR": 0, "MEAN_MOTION_DOT": -5.4e-07, "MEAN_MOTION_DDOT": 0}, "tle": {"line1": "1 41752U 16054A   25354.94280906 -.00000054  00000+0  00000+0 0  9990", "line2": "2 41752   0.1117  86.3292 0014141 185.3241 231.5163  1.00271577 34037"}}, "geometry": {"type": "Point", "coordinates": [-109.80401262485415, 0.005778057132071413]}}]}